NORAD_CAT_ID,OBJECT_NAME,OBJECT_TYPE,EPOCH,MEAN_MOTION,ECCENTRICITY,INCLINATION,RA_OF_ASC_NODE,ARG_OF_PERICENTER,MEAN_ANOMALY,BSTAR,MEAN_MOTION_DOT,MEAN_MOTION_DDOT,TLE_LINE0,TLE_LINE1,TLE_LINE2,SEMIMAJOR_AXIS,PERIOD,APOGEE,PERIGEE,DECAYED
55791.0,STARLINK-5807,PAYLOAD,2023-09-24 10:16:08,14.98754329,0.0003194,69.9986,306.8251,268.4293,91.65,-0.0053179,-0.00063669,0.0,0 STARLINK-5807,1 55791U 23028BC  23267.42787498 -.00063669  00000-0 -53179-2 0  9990,2 55791  69.9986 306.8251 0003194 268.4293  91.6500 14.98754329 32617,6948.881,96.08,572.965,568.527,0.0
55791.0,STARLINK-5807,PAYLOAD,2023-09-24 11:52:15,14.98745429,0.0003219,69.9987,306.6563,270.343,89.736,-0.0053173,-0.00063648,0.0,0 STARLINK-5807,1 55791U 23028BC  23267.49461928 -.00063648  00000-0 -53173-2 0  9995,2 55791  69.9987 306.6563 0003219 270.3430  89.7360 14.98745429 32630,6948.909,96.08,573.01,568.537,0.0
55791.0,STARLINK-5807,PAYLOAD,2023-09-24 18:16:41,14.98716154,0.000329,69.9985,305.9829,271.6742,88.404,-0.0052505,-0.0006281,0.0,0 STARLINK-5807,1 55791U 23028BC  23267.76159698 -.00062810  00000-0 -52505-2 0  9991,2 55791  69.9985 305.9829 0003290 271.6742  88.4040 14.98716154 32661,6948.999,96.082,573.15,568.578,0.0
55791.0,STARLINK-5807,PAYLOAD,2023-09-25 11:53:57,14.98653374,0.0003483,69.9977,304.1298,271.7707,88.3053,-0.0046794,-0.00055952,0.0,0 STARLINK-5807,1 55791U 23028BC  23268.49580503 -.00055952  00000-0 -46794-2 0  9997,2 55791  69.9977 304.1298 0003483 271.7707  88.3053 14.98653374 32789,6949.193,96.086,573.478,568.638,0.0
55791.0,STARLINK-5807,PAYLOAD,2023-09-26 02:19:08,14.9837308,0.0003541,69.9975,302.6144,264.2521,95.8234,-0.00080998,-9.755e-05,0.0,0 STARLINK-5807,1 55791U 23028BC  23269.09662614 -.00009755  00000-0 -80998-3 0  9993,2 55791  69.9975 302.6144 0003541 264.2521  95.8234 14.98373080 32862,6950.06,96.104,574.386,569.464,0.0
55791.0,STARLINK-5807,PAYLOAD,2023-09-26 14:00:01,14.98322019,0.0003489,69.9997,301.3885,272.1809,192.5638,0.0014022,0.00016675,0.0,0 STARLINK-5807,1 55791U 23028BC  23269.58335648  .00016675  00000-0  14022-2 0  9992,2 55791  69.9997 301.3885 0003489 272.1809 192.5638 14.98322019 32939,6950.218,96.108,574.508,569.658,0.0
55791.0,STARLINK-5807,PAYLOAD,2023-09-26 22:00:00,14.98299389,0.0003486,69.9997,300.548,266.5508,195.6264,0.0060678,0.0007301,0.0,0 STARLINK-5807,1 55791U 23028BC  23269.91667824  .00073010  00000-0  60678-2 0  9997,2 55791  69.9997 300.5480 0003486 266.5508 195.6264 14.98299389  5911,6950.288,96.109,574.575,569.73,0.0
55791.0,STARLINK-5807,PAYLOAD,2023-09-27 14:00:01,14.98331022,0.0003493,69.9995,298.867,273.7101,183.4438,-0.00062432,-7.535e-05,0.0,0 STARLINK-5807,1 55791U 23028BC  23270.58334491 -.00007535  00000-0 -62432-3 0  9995,2 55791  69.9995 298.8670 0003493 273.7101 183.4438 14.98331022 33084,6950.19,96.107,574.482,569.627,0.0
55791.0,STARLINK-5807,PAYLOAD,2023-09-28 11:59:58,14.98325816,0.0003307,69.9977,296.5556,265.7527,94.3254,2.9426e-05,2.58e-06,0.0,0 STARLINK-5807,1 55791U 23028BC  23271.49998648  .00000258  00000-0  29426-4 0  9996,2 55791  69.9977 296.5556 0003307 265.7527  94.3254 14.98325816 33236,6950.206,96.107,574.369,569.772,0.0
55791.0,STARLINK-5807,PAYLOAD,2023-09-29 00:49:03,14.98332623,0.0003183,69.9982,295.2088,266.936,93.1435,-1.9063e-05,-3.21e-06,0.0,0 STARLINK-5807,1 55791U 23028BC  23272.03406400 -.00000321  00000-0 -19063-4 0  9996,2 55791  69.9982 295.2088 0003183 266.9360  93.1435 14.98332623 33308,6950.185,96.107,574.262,569.838,0.0
55791.0,STARLINK-5807,PAYLOAD,2023-09-29 12:01:59,14.98333318,0.0003172,69.9985,294.0304,267.8662,92.2134,-3.7799e-06,-1.38e-06,0.0,0 STARLINK-5807,1 55791U 23028BC  23272.50138240 -.00000138  00000-0 -37799-5 0  9995,2 55791  69.9985 294.0304 0003172 267.8662  92.2134 14.98333318 33388,6950.183,96.107,574.252,569.843,0.0
55791.0,STARLINK-5807,PAYLOAD,2023-09-30 04:03:20,14.98330146,0.0003213,69.9986,292.3468,268.799,91.2801,4.6464e-05,4.61e-06,0.0,0 STARLINK-5807,1 55791U 23028BC  23273.16898176  .00000461  00000-0  46464-4 0  9994,2 55791  69.9986 292.3468 0003213 268.7990  91.2801 14.98330146 33477,6950.192,96.107,574.291,569.824,0.0
55791.0,STARLINK-5807,PAYLOAD,2023-09-30 05:39:28,14.98330133,0.0003201,69.9986,292.1784,268.906,91.1733,4.6819e-05,4.66e-06,0.0,0 STARLINK-5807,1 55791U 23028BC  23273.23574173  .00000466  00000-0  46819-4 0  9999,2 55791  69.9986 292.1784 0003201 268.9060  91.1733 14.98330133 33494,6950.192,96.107,574.282,569.833,0.0
55791.0,STARLINK-5807,PAYLOAD,2023-10-01 10:29:53,14.98330551,0.0003026,69.9993,289.1491,266.6353,93.4459,3.0464e-06,-5.7e-07,0.0,0 STARLINK-5807,1 55791U 23028BC  23274.43742127 -.00000057  00000-0  30464-5 0  9995,2 55791  69.9993 289.1491 0003026 266.6353  93.4459 14.98330551 33661,6950.191,96.107,574.159,569.953,0.0
55791.0,STARLINK-5807,PAYLOAD,2023-10-01 18:30:33,14.98329603,0.0003061,69.9996,288.306,272.285,87.7958,-4.6104e-05,-6.43e-06,0.0,0 STARLINK-5807,1 55791U 23028BC  23274.77122342 -.00000643  00000-0 -46104-4 0  9992,2 55791  69.9996 288.3060 0003061 272.2850  87.7958 14.98329603 33724,6950.194,96.107,574.187,569.932,0.0
55791.0,STARLINK-5807,PAYLOAD,2023-10-02 02:31:14,14.98324408,0.0003181,69.9989,287.4657,269.0758,91.0037,-8.6145e-05,-1.121e-05,0.0,0 STARLINK-5807,1 55791U 23028BC  23275.10502745 -.00001121  00000-0 -86145-4 0  9990,2 55791  69.9989 287.4657 0003181 269.0758  91.0037 14.98324408 33760,6950.21,96.107,574.286,569.864,0.0
55791.0,STARLINK-5807,PAYLOAD,2023-10-02 10:31:54,14.98313799,0.0003123,69.9992,286.6231,267.1837,92.8965,0.00016226,1.843e-05,0.0,0 STARLINK-5807,1 55791U 23028BC  23275.43882864  .00001843  00000-0  16226-3 0  9990,2 55791  69.9992 286.6231 0003123 267.1837  92.8965 14.98313799 33823,6950.243,96.108,574.279,569.937,0.0
55791.0,STARLINK-5807,PAYLOAD,2023-10-03 04:09:22,14.98330168,0.0003197,69.9987,284.7718,269.3557,90.7236,2.0038e-05,1.46e-06,0.0,0 STARLINK-5807,1 55791U 23028BC  23276.17318194  .00000146  00000-0  20038-4 0  9994,2 55791  69.9987 284.7718 0003197 269.3557  90.7236 14.98330168 33928,6950.192,96.107,574.279,569.835,0.0
55791.0,STARLINK-5807,PAYLOAD,2023-10-03 10:33:54,14.98335141,0.0003268,69.9985,284.0986,270.0345,90.0439,4.5424e-05,4.49e-06,0.0,0 STARLINK-5807,1 55791U 23028BC  23276.44021760  .00000449  00000-0  45424-4 0  9996,2 55791  69.9985 284.0986 0003268 270.0345  90.0439 14.98335141 33978,6950.177,96.107,574.313,569.771,0.0
55791.0,STARLINK-5807,PAYLOAD,2023-10-04 10:35:56,14.98324569,0.0003335,69.9992,281.5741,271.8066,88.2711,8.0101e-05,8.63e-06,0.0,0 STARLINK-5807,1 55791U 23028BC  23277.44162412  .00000863  00000-0  80101-4 0  9998,2 55791  69.9992 281.5741 0003335 271.8066  88.2711 14.98324569 34112,6950.21,96.107,574.393,569.757,0.0
55791.0,STARLINK-5807,PAYLOAD,2023-10-05 10:37:56,14.9833461,0.0003096,69.999,279.0488,269.7421,90.3384,1.1916e-05,4.9e-07,0.0,0 STARLINK-5807,1 55791U 23028BC  23278.44301854  .00000049  00000-0  11916-4 0  9998,2 55791  69.9990 279.0488 0003096 269.7421  90.3384 14.98334610 34269,6950.179,96.107,574.195,569.892,0.0
55791.0,STARLINK-5807,PAYLOAD,2023-10-05 17:02:29,14.98331233,0.0003062,69.9992,278.3755,269.9959,90.0849,-1.1734e-05,-2.33e-06,0.0,0 STARLINK-5807,1 55791U 23028BC  23278.71006076 -.00000233  00000-0 -11734-4 0  9991,2 55791  69.9992 278.3755 0003062 269.9959  90.0849 14.98331233 34318,6950.189,96.107,574.182,569.926,0.0
55791.0,STARLINK-5807,PAYLOAD,2023-10-06 02:39:17,14.98328269,0.0003022,69.999,277.3655,270.7723,89.309,-4.6958e-06,-1.49e-06,0.0,0 STARLINK-5807,1 55791U 23028BC  23279.11062235 -.00000149  00000-0 -46958-5 0  9998,2 55791  69.9990 277.3655 0003022 270.7723  89.3090 14.98328269 34368,6950.198,96.107,574.164,569.963,0.0
55791.0,STARLINK-5807,PAYLOAD,2023-10-06 09:03:49,14.98329469,0.0002999,69.9991,276.6922,270.73,89.3516,1.0468e-05,3.2e-07,0.0,0 STARLINK-5807,1 55791U 23028BC  23279.37766128  .00000032  00000-0  10468-4 0  9993,2 55791  69.9991 276.6922 0002999 270.7300  89.3516 14.98329469 34413,6950.195,96.107,574.144,569.975,0.0
55791.0,STARLINK-5807,PAYLOAD,2023-10-06 17:04:30,14.98328231,0.0002995,69.9991,275.8505,270.9084,89.1732,-3.4989e-06,-1.35e-06,0.0,0 STARLINK-5807,1 55791U 23028BC  23279.71146249 -.00000135  00000-0 -34989-5 0  9998,2 55791  69.9991 275.8505 0002995 270.9084  89.1732 14.98328231 34467,6950.198,96.107,574.145,569.982,0.0
55791.0,STARLINK-5807,PAYLOAD,2023-10-07 01:05:10,14.98328642,0.0002962,69.9992,275.0087,269.6545,90.4275,-2.4677e-05,-3.87e-06,0.0,0 STARLINK-5807,1 55791U 23028BC  23280.04526287 -.00000387  00000-0 -24677-4 0  9991,2 55791  69.9992 275.0087 0002962 269.6545  90.4275 14.98328642 34515,6950.197,96.107,574.121,570.003,0.0
55791.0,STARLINK-5807,PAYLOAD,2023-10-08 02:43:19,14.983275,0.0003039,69.999,272.3151,270.0689,90.0122,9.3021e-06,1.8e-07,0.0,0 STARLINK-5807,1 55791U 23028BC  23281.11342264  .00000018  00000-0  93021-5 0  9990,2 55791  69.9990 272.3151 0003039 270.0689  90.0122 14.98327500 34661,6950.201,96.107,574.178,569.953,0.0
55791.0,STARLINK-5807,PAYLOAD,2023-10-08 09:07:51,14.98332574,0.0003062,69.999,271.6416,269.329,90.7518,3.1518e-05,2.83e-06,0.0,0 STARLINK-5807,1 55791U 23028BC  23281.38045849  .00000283  00000-0  31518-4 0  9994,2 55791  69.9990 271.6416 0003062 269.3290  90.7518 14.98332574 34711,6950.185,96.107,574.178,569.922,0.0
55791.0,STARLINK-5807,PAYLOAD,2023-10-08 18:44:40,14.98330563,0.000306,69.999,270.6316,269.623,90.4578,1.5923e-05,9.7e-07,0.0,0 STARLINK-5807,1 55791U 23028BC  23281.78101973  .00000097  00000-0  15923-4 0  9994,2 55791  69.9990 270.6316 0003060 269.6230  90.4578 14.98330563 34779,6950.191,96.107,574.183,569.929,0.0
55791.0,STARLINK-5807,PAYLOAD,2023-10-09 02:45:20,14.98325772,0.0003066,69.999,269.7899,269.4538,90.627,8.5114e-06,9e-08,0.0,0 STARLINK-5807,1 55791U 23028BC  23282.11482317  .00000009  00000-0  85114-5 0  9999,2 55791  69.9990 269.7899 0003066 269.4538  90.6270 14.98325772 34811,6950.206,96.107,574.202,569.94,0.0
